BEIDOU-2 IGSO-1 (C06)   
1 36828U 10036A   26129.56207134 -.00000068  00000+0  00000+0 0  9998
2 36828  54.2946 163.3091 0058712 224.6236 148.8612  1.00281802 57712
BEIDOU-2 G4 (C04)       
1 37210U 10057A   26129.78754234 -.00000102  00000+0  00000+0 0  9998
2 37210   3.5517  69.1558 0005561 213.5650  28.3657  1.00273266 56907
BEIDOU-2 IGSO-2 (C07)   
1 37256U 10068A   26126.82717209 -.00000199  00000+0  00000+0 0  9999
2 37256  47.6271 272.3432 0052277 211.0703 144.6242  1.00297293 56379
BEIDOU-2 IGSO-3 (C08)   
1 37384U 11013A   26129.76284397 -.00000188  00000+0  00000+0 0  9993
2 37384  62.3574  40.5176 0034038 186.7211  23.2210  1.00277770 55271
BEIDOU-2 IGSO-4 (C09)   
1 37763U 11038A   26127.08566644  .00000028  00000+0  00000+0 0  9994
2 37763  54.5895 166.0525 0159176 231.8688 309.0637  1.00254387 54236
BEIDOU-2 IGSO-5 (C10)   
1 37948U 11073A   26128.86969726 -.00000159  00000+0  00000+0 0  9999
2 37948  47.7531 272.0313 0111459 220.7494 139.9104  1.00257961 52743
BEIDOU-2 G5 (C05)       
1 38091U 12008A   26129.90887626  .00000068  00000+0  00000+0 0  9990
2 38091   3.4784  69.9101 0011321 272.1298 271.5548  1.00271123 51986
BEIDOU-2 M3 (C11)       
1 38250U 12018A   26128.45381045 -.00000038  00000+0  00000+0 0  9999
2 38250  55.7928 306.2139 0019668 277.1817  82.5892  1.86230179 95200
BEIDOU-2 M4 (C12)       
1 38251U 12018B   26128.92300840 -.00000036  00000+0  00000+0 0  9994
2 38251  55.6931 305.4151 0010884 282.3733  77.4996  1.86229854 95212
BEIDOU-2 M6 (C14)       
1 38775U 12050B   26129.16983613 -.00000020  00000+0  00000+0 0  9996
2 38775  56.5118  64.1842 0014378 350.7322   9.2308  1.86230974 92584
BEIDOU-2 G6 (C02)       
1 38953U 12059A   26129.78304765 -.00000165  00000+0  00000+0 0  9996
2 38953   4.3243  73.9184 0010802 319.8033 199.8393  1.00273246 49523
BEIDOU-3S IGSO-1S (C31) 
1 40549U 15019A   26129.80845648 -.00000161  00000+0  00000+0 0  9998
2 40549  49.2697 295.9221 0037590 190.3132 126.7361  1.00259004 40689
BEIDOU-3S M2S (C58)     
1 40748U 15037A   26128.58906300 -.00000037  00000+0  00000+0 0  9998
2 40748  54.9079 303.4092 0007455 268.2126  91.6939  1.86232348 73383
BEIDOU-3S M1S (C57)     
1 40749U 15037B   26129.33819546 -.00000036  00000+0  00000+0 0  9997
2 40749  54.9031 303.3710 0004155  55.4941 304.5384  1.86255031 73400
BEIDOU-3S IGSO-2S (C56) 
1 40938U 15053A   26129.82802867 -.00000153  00000+0  00000+0 0  9997
2 40938  49.2845 259.2384 0063898 190.9046 172.1974  1.00268604 38979
BEIDOU-2 IGSO-6 (C13)   
1 41434U 16021A   26129.84290366 -.00000158  00000+0  00000+0 0  9997
2 41434  60.1745  38.4228 0057654 232.5950 354.8205  1.00266554 37096
BEIDOU-2 G7 (C03)       
1 41586U 16037A   26129.86850309 -.00000344  00000+0  00000+0 0  9990
2 41586   1.6252  68.9461 0007723 357.1077 224.8789  1.00272276  6503
BEIDOU-3 M1 (C19)       
1 43001U 17069A   26129.47217497 -.00000019  00000+0  00000+0 0  9991
2 43001  56.6598  64.3599 0011778 319.4965  40.4056  1.86231471 57886
BEIDOU-3 M2 (C20)       
1 43002U 17069B   26128.33767399 -.00000020  00000+0  00000+0 0  9999
2 43002  56.6766  64.4251 0022120  73.1957 287.0348  1.86210859 57855
BEIDOU-3 M7 (C27)       
1 43107U 18003A   26129.15243528 -.00000038  00000+0  00000+0 0  9997
2 43107  54.3640 303.6756 0005265  84.0120 276.0413  1.86228387 56629
BEIDOU-3 M8 (C28)       
1 43108U 18003B   26129.63476517 -.00000037  00000+0  00000+0 0  9996
2 43108  54.3563 303.6407 0002143 280.1514  79.8182  1.86231293 56649
BEIDOU-3 M4 (C22)       
1 43207U 18018A   26129.54045211 -.00000019  00000+0  00000+0 0  9995
2 43207  56.6190  64.4229 0007757   5.3490 354.6487  1.86231430 56027
BEIDOU-3 M3 (C21)       
1 43208U 18018B   26129.06995149 -.00000019  00000+0  00000+0 0  9997
2 43208  56.6178  64.4424 0009730 331.7782  28.1584  1.86231351 56016
BEIDOU-3 M9 (C29)       
1 43245U 18029A   26129.28758501 -.00000036  00000+0  00000+0 0  9992
2 43245  54.2308 301.3089 0000809  97.4474 262.5528  1.86228525 55175
BEIDOU-3 M10 (C30)      
1 43246U 18029B   26129.22214498 -.00000037  00000+0  00000+0 0  9990
2 43246  54.2281 301.3374 0004700  36.2915 323.7313  1.86229463 55150
BEIDOU-2 IGSO-7 (C16)   
1 43539U 18057A   26128.53901286 -.00000029  00000+0  00000+0 0  9998
2 43539  55.1875 163.4048 0103898 237.7189 131.6026  1.00263483 28735
BEIDOU-3 M5 (C23)       
1 43581U 18062A   26128.37243906  .00000037  00000+0  00000+0 0  9999
2 43581  54.0835 183.6581 0004699 288.6287  71.3975  1.86228855 52890
BEIDOU-3 M6 (C24)       
1 43582U 18062B   26129.30962619  .00000044  00000+0  00000+0 0  9991
2 43582  54.0831 183.6153 0004808  18.9796 341.1148  1.86227992 52917
BEIDOU-3 M12 (C26)      
1 43602U 18067A   26129.24802271  .00000046  00000+0  00000+0 0  9991
2 43602  54.1783 182.3610 0007840  32.7480 327.3771  1.86227965 52394
BEIDOU-3 M11 (C25)      
1 43603U 18067B   26129.38297212  .00000047  00000+0  00000+0 0  9991
2 43603  54.1758 182.3202 0004460  18.1352 341.9572  1.86227404 52428
BEIDOU-3 M13 (C32)      
1 43622U 18072A   26129.33804645 -.00000020  00000+0  00000+0 0  9999
2 43622  56.5922  63.9411 0008454 320.9117  39.0173  1.86231535 51931
